{
  "type": "FeatureCollection",
  "name": "JMARS_Profile1_crater_rim",
  "features": [
    {
      "type": "Feature",
      "properties": {
        "name": "crater_rim_user_trace",
        "source": "JMARS Profile 1",
        "status": "provisional full-rim trace",
        "longitude": "degrees east",
        "latitude": "planetocentric north",
        "vertex_count": 70,
        "length_km": 114.245
      },
      "geometry": {
        "type": "LineString",
        "coordinates": [
          [
            76.077,
            18.203
          ],
          [
            76.08,
            18.232
          ],
          [
            76.079,
            18.266
          ],
          [
            76.066,
            18.312
          ],
          [
            76.058,
            18.338
          ],
          [
            76.053,
            18.369
          ],
          [
            76.045,
            18.389
          ],
          [
            76.027,
            18.403
          ],
          [
            76.015,
            18.409
          ],
          [
            75.982,
            18.421
          ],
          [
            75.972,
            18.428
          ],
          [
            75.963,
            18.435
          ],
          [
            75.943,
            18.454
          ],
          [
            75.925,
            18.463
          ],
          [
            75.915,
            18.476
          ],
          [
            75.902,
            18.476
          ],
          [
            75.878,
            18.48
          ],
          [
            75.855,
            18.492
          ],
          [
            75.832,
            18.498
          ],
          [
            75.804,
            18.502
          ],
          [
            75.781,
            18.507
          ],
          [
            75.754,
            18.507
          ],
          [
            75.745,
            18.495
          ],
          [
            75.735,
            18.491
          ],
          [
            75.719,
            18.493
          ],
          [
            75.698,
            18.493
          ],
          [
            75.674,
            18.488
          ],
          [
            75.641,
            18.473
          ],
          [
            75.617,
            18.455
          ],
          [
            75.609,
            18.469
          ],
          [
            75.586,
            18.463
          ],
          [
            75.566,
            18.448
          ],
          [
            75.553,
            18.423
          ],
          [
            75.507,
            18.373
          ],
          [
            75.501,
            18.344
          ],
          [
            75.48,
            18.323
          ],
          [
            75.478,
            18.295
          ],
          [
            75.496,
            18.272
          ],
          [
            75.478,
            18.283
          ],
          [
            75.473,
            18.265
          ],
          [
            75.482,
            18.246
          ],
          [
            75.488,
            18.227
          ],
          [
            75.472,
            18.209
          ],
          [
            75.449,
            18.167
          ],
          [
            75.46,
            18.161
          ],
          [
            75.465,
            18.146
          ],
          [
            75.479,
            18.148
          ],
          [
            75.491,
            18.134
          ],
          [
            75.504,
            18.136
          ],
          [
            75.512,
            18.122
          ],
          [
            75.512,
            18.103
          ],
          [
            75.514,
            18.087
          ],
          [
            75.523,
            18.054
          ],
          [
            75.561,
            18.029
          ],
          [
            75.608,
            18.01
          ],
          [
            75.67,
            17.979
          ],
          [
            75.774,
            17.953
          ],
          [
            75.814,
            17.944
          ],
          [
            75.838,
            17.945
          ],
          [
            75.881,
            17.962
          ],
          [
            75.933,
            17.977
          ],
          [
            75.973,
            17.998
          ],
          [
            76.0,
            18.017
          ],
          [
            76.021,
            18.053
          ],
          [
            76.04,
            18.091
          ],
          [
            76.041,
            18.125
          ],
          [
            76.053,
            18.134
          ],
          [
            76.067,
            18.167
          ],
          [
            76.075,
            18.198
          ],
          [
            76.077,
            18.202
          ]
        ]
      }
    }
  ]
}